GLOBALSTAR M023         
1 25621U 99004A   24118.62133957 -.00000026  00000+0  43355-3 0  9991
2 25621  52.0104 238.8014 0009677 288.2518  84.9770 12.62452107163240
GLOBALSTAR M040         
1 25622U 99004B   24118.59385757 -.00000041  00000+0  35244-3 0  9990
2 25622  51.9914 242.4274 0001006 163.8646 209.6193 12.61972099162784
GLOBALSTAR M038         
1 25624U 99004D   24118.46395237 -.00000025  00000+0  57753-3 0  9993
2 25624  51.9960 188.7769 0001666 255.8868 117.6570 12.32498170151111
GLOBALSTAR M041         
1 25650U 99012B   24118.50050492 -.00000116  00000+0 -39758-3 0  9994
2 25650  52.0012 209.6862 0002594 206.2692 153.8013 11.96659639128513
GLOBALSTAR M046         
1 25651U 99012C   24118.23886891 -.00000157  00000+0 -75810-3 0  9999
2 25651  52.0055 306.9391 0002941 131.1155  40.3438 12.09388575133683
